STARLINK-36040          
1 66614U 25270AC  25347.58336806  .00085288  00000+0  14481-2 0  9999
2 66614  42.9999 187.6744 0001411 262.5590 211.3661 15.50496198  4372
STARLINK-35988          
1 66615U 25270AD  25347.58336806 -.02080242  00000+0 -41626-1 0  9999
2 66615  43.0000 187.6796 0001273 270.6092 200.7650 15.49385958  4377
STARLINK-35391          
1 66616U 25270AE  25347.58336806  .00078869  00000+0  13397-2 0  9993
2 66616  43.0000 187.6699 0001544 260.2835 215.5380 15.50514618  4644
STARLINK-35940          
1 66617U 25271A   25347.58336806 -.00909025  00000+0 -17561-1 0  9990
2 66617  53.1600 183.1989 0000974 103.2960  13.1259 15.49616445  4373
STARLINK-35970          
1 66618U 25271B   25347.58336806  .00070600  00000+0  12661-2 0  9994
2 66618  53.1602 183.0861 0000596  77.1996  92.4907 15.49305683  4371
STARLINK-35951          
1 66619U 25271C   25347.58336806  .00079088  00000+0  14160-2 0  9990
2 66619  53.1602 183.1816 0000855 150.6335 333.4011 15.49303574  4376
STARLINK-35936          
1 66620U 25271D   25347.58336806  .00068354  00000+0  12284-2 0  9991
2 66620  53.1601 183.1946 0000748  80.3081  38.1078 15.49261473  4372
STARLINK-35847          
1 66621U 25271E   25347.58336806  .00070254  00000+0  12601-2 0  9997
2 66621  53.1603 183.0784 0000618  66.8188 106.4064 15.49304410  4370
STARLINK-35950          
1 66622U 25271F   25347.58336806  .00072425  00000+0  13001-2 0  9995
2 66622  53.1602 183.1782 0000817 106.6087  19.4644 15.49266711  4379
STARLINK-35920          
1 66623U 25271G   25347.58336806  .00077142  00000+0  13837-2 0  9994
2 66623  53.1603 183.1695 0001284 101.6538  28.2588 15.49261627  4375
STARLINK-35927          
1 66624U 25271H   25347.58336806  .00072775  00000+0  13066-2 0  9996
2 66624  53.1602 183.1747 0000610 103.4943  24.5029 15.49260498  4379
STARLINK-35929          
1 66625U 25271J   25347.58336806  .00066608  00000+0  11972-2 0  9999
2 66625  53.1602 183.1654 0001255  99.9875  31.8319 15.49267954  4373
