CCSDS_OMM_VERS = 2.0
CREATION_DATE  = 
ORIGINATOR     = 

OBJECT_NAME    = STARLINK-36040
OBJECT_ID      = 2025-270AC
CENTER_NAME    = EARTH
REF_FRAME      = TEME
TIME_SYSTEM    = UTC
MEAN_ELEMENT_THEORY = SGP/SGP4

EPOCH          = 2025-12-13T14:00:03.000384
MEAN_MOTION    = 15.50496198
ECCENTRICITY   = .0001411
INCLINATION    = 42.9999
RA_OF_ASC_NODE = 187.6744
ARG_OF_PERICENTER = 262.5590
MEAN_ANOMALY   = 211.3661

EPHEMERIS_TYPE = 0
CLASSIFICATION_TYPE = U
NORAD_CAT_ID   = 66614
ELEMENT_SET_NO = 999
REV_AT_EPOCH   = 437
BSTAR          = .14480752E-2
MEAN_MOTION_DOT = .85288E-3
MEAN_MOTION_DDOT = 0

CCSDS_OMM_VERS = 2.0
CREATION_DATE  = 
ORIGINATOR     = 

OBJECT_NAME    = STARLINK-35988
OBJECT_ID      = 2025-270AD
CENTER_NAME    = EARTH
REF_FRAME      = TEME
TIME_SYSTEM    = UTC
MEAN_ELEMENT_THEORY = SGP/SGP4

EPOCH          = 2025-12-13T14:00:03.000384
MEAN_MOTION    = 15.49385958
ECCENTRICITY   = .00012733
INCLINATION    = 43.0000
RA_OF_ASC_NODE = 187.6796
ARG_OF_PERICENTER = 270.6092
MEAN_ANOMALY   = 200.7650

EPHEMERIS_TYPE = 0
CLASSIFICATION_TYPE = U
NORAD_CAT_ID   = 66615
ELEMENT_SET_NO = 999
REV_AT_EPOCH   = 437
BSTAR          = -.41626361E-1
MEAN_MOTION_DOT = -.2080242E-1
MEAN_MOTION_DDOT = 0

CCSDS_OMM_VERS = 2.0
CREATION_DATE  = 
ORIGINATOR     = 

OBJECT_NAME    = STARLINK-35391
OBJECT_ID      = 2025-270AE
CENTER_NAME    = EARTH
REF_FRAME      = TEME
TIME_SYSTEM    = UTC
MEAN_ELEMENT_THEORY = SGP/SGP4

EPOCH          = 2025-12-13T14:00:03.000384
MEAN_MOTION    = 15.50514618
ECCENTRICITY   = .00015448
INCLINATION    = 43.0000
RA_OF_ASC_NODE = 187.6699
ARG_OF_PERICENTER = 260.2835
MEAN_ANOMALY   = 215.5380

EPHEMERIS_TYPE = 0
CLASSIFICATION_TYPE = U
NORAD_CAT_ID   = 66616
ELEMENT_SET_NO = 999
REV_AT_EPOCH   = 464
BSTAR          = .13397351E-2
MEAN_MOTION_DOT = .78869E-3
MEAN_MOTION_DDOT = 0

CCSDS_OMM_VERS = 2.0
CREATION_DATE  = 
ORIGINATOR     = 

OBJECT_NAME    = STARLINK-35940
OBJECT_ID      = 2025-271A
CENTER_NAME    = EARTH
REF_FRAME      = TEME
TIME_SYSTEM    = UTC
MEAN_ELEMENT_THEORY = SGP/SGP4

EPOCH          = 2025-12-13T14:00:03.000384
MEAN_MOTION    = 15.49616445
ECCENTRICITY   = .00009748
INCLINATION    = 53.1600
RA_OF_ASC_NODE = 183.1989
ARG_OF_PERICENTER = 103.2960
MEAN_ANOMALY   = 13.1259

EPHEMERIS_TYPE = 0
CLASSIFICATION_TYPE = U
NORAD_CAT_ID   = 66617
ELEMENT_SET_NO = 999
REV_AT_EPOCH   = 437
BSTAR          = -.17560668E-1
MEAN_MOTION_DOT = -.909025E-2
MEAN_MOTION_DDOT = 0

CCSDS_OMM_VERS = 2.0
CREATION_DATE  = 
ORIGINATOR     = 

OBJECT_NAME    = STARLINK-35970
OBJECT_ID      = 2025-271B
CENTER_NAME    = EARTH
REF_FRAME      = TEME
TIME_SYSTEM    = UTC
MEAN_ELEMENT_THEORY = SGP/SGP4

EPOCH          = 2025-12-13T14:00:03.000384
MEAN_MOTION    = 15.49305683
ECCENTRICITY   = .0000596
INCLINATION    = 53.1602
RA_OF_ASC_NODE = 183.0861
ARG_OF_PERICENTER = 77.1996
MEAN_ANOMALY   = 92.4907

EPHEMERIS_TYPE = 0
CLASSIFICATION_TYPE = U
NORAD_CAT_ID   = 66618
ELEMENT_SET_NO = 999
REV_AT_EPOCH   = 437
BSTAR          = .12661447E-2
MEAN_MOTION_DOT = .706E-3
MEAN_MOTION_DDOT = 0

CCSDS_OMM_VERS = 2.0
CREATION_DATE  = 
ORIGINATOR     = 

OBJECT_NAME    = STARLINK-35951
OBJECT_ID      = 2025-271C
CENTER_NAME    = EARTH
REF_FRAME      = TEME
TIME_SYSTEM    = UTC
MEAN_ELEMENT_THEORY = SGP/SGP4

EPOCH          = 2025-12-13T14:00:03.000384
MEAN_MOTION    = 15.49303574
ECCENTRICITY   = .00008551
INCLINATION    = 53.1602
RA_OF_ASC_NODE = 183.1816
ARG_OF_PERICENTER = 150.6335
MEAN_ANOMALY   = 333.4011

EPHEMERIS_TYPE = 0
CLASSIFICATION_TYPE = U
NORAD_CAT_ID   = 66619
ELEMENT_SET_NO = 999
REV_AT_EPOCH   = 437
BSTAR          = .14159652E-2
MEAN_MOTION_DOT = .79088E-3
MEAN_MOTION_DDOT = 0

CCSDS_OMM_VERS = 2.0
CREATION_DATE  = 
ORIGINATOR     = 

OBJECT_NAME    = STARLINK-35936
OBJECT_ID      = 2025-271D
CENTER_NAME    = EARTH
REF_FRAME      = TEME
TIME_SYSTEM    = UTC
MEAN_ELEMENT_THEORY = SGP/SGP4

EPOCH          = 2025-12-13T14:00:03.000384
MEAN_MOTION    = 15.49261473
ECCENTRICITY   = .00007482
INCLINATION    = 53.1601
RA_OF_ASC_NODE = 183.1946
ARG_OF_PERICENTER = 80.3081
MEAN_ANOMALY   = 38.1078

EPHEMERIS_TYPE = 0
CLASSIFICATION_TYPE = U
NORAD_CAT_ID   = 66620
ELEMENT_SET_NO = 999
REV_AT_EPOCH   = 437
BSTAR          = .1228383E-2
MEAN_MOTION_DOT = .68354E-3
MEAN_MOTION_DDOT = 0

CCSDS_OMM_VERS = 2.0
CREATION_DATE  = 
ORIGINATOR     = 

OBJECT_NAME    = STARLINK-35847
OBJECT_ID      = 2025-271E
CENTER_NAME    = EARTH
REF_FRAME      = TEME
TIME_SYSTEM    = UTC
MEAN_ELEMENT_THEORY = SGP/SGP4

EPOCH          = 2025-12-13T14:00:03.000384
MEAN_MOTION    = 15.49304410
ECCENTRICITY   = .00006185
INCLINATION    = 53.1603
RA_OF_ASC_NODE = 183.0784
ARG_OF_PERICENTER = 66.8188
MEAN_ANOMALY   = 106.4064

EPHEMERIS_TYPE = 0
CLASSIFICATION_TYPE = U
NORAD_CAT_ID   = 66621
ELEMENT_SET_NO = 999
REV_AT_EPOCH   = 437
BSTAR          = .12600906E-2
MEAN_MOTION_DOT = .70254E-3
MEAN_MOTION_DDOT = 0

CCSDS_OMM_VERS = 2.0
CREATION_DATE  = 
ORIGINATOR     = 

OBJECT_NAME    = STARLINK-35950
OBJECT_ID      = 2025-271F
CENTER_NAME    = EARTH
REF_FRAME      = TEME
TIME_SYSTEM    = UTC
MEAN_ELEMENT_THEORY = SGP/SGP4

EPOCH          = 2025-12-13T14:00:03.000384
MEAN_MOTION    = 15.49266711
ECCENTRICITY   = .00008173
INCLINATION    = 53.1602
RA_OF_ASC_NODE = 183.1782
ARG_OF_PERICENTER = 106.6087
MEAN_ANOMALY   = 19.4644

EPHEMERIS_TYPE = 0
CLASSIFICATION_TYPE = U
NORAD_CAT_ID   = 66622
ELEMENT_SET_NO = 999
REV_AT_EPOCH   = 437
BSTAR          = .13001379E-2
MEAN_MOTION_DOT = .72425E-3
MEAN_MOTION_DDOT = 0

CCSDS_OMM_VERS = 2.0
CREATION_DATE  = 
ORIGINATOR     = 

OBJECT_NAME    = STARLINK-35920
OBJECT_ID      = 2025-271G
CENTER_NAME    = EARTH
REF_FRAME      = TEME
TIME_SYSTEM    = UTC
MEAN_ELEMENT_THEORY = SGP/SGP4

EPOCH          = 2025-12-13T14:00:03.000384
MEAN_MOTION    = 15.49261627
ECCENTRICITY   = .00012845
INCLINATION    = 53.1603
RA_OF_ASC_NODE = 183.1695
ARG_OF_PERICENTER = 101.6538
MEAN_ANOMALY   = 28.2588

EPHEMERIS_TYPE = 0
CLASSIFICATION_TYPE = U
NORAD_CAT_ID   = 66623
ELEMENT_SET_NO = 999
REV_AT_EPOCH   = 437
BSTAR          = .13837019E-2
MEAN_MOTION_DOT = .77142E-3
MEAN_MOTION_DDOT = 0

CCSDS_OMM_VERS = 2.0
CREATION_DATE  = 
ORIGINATOR     = 

OBJECT_NAME    = STARLINK-35927
OBJECT_ID      = 2025-271H
CENTER_NAME    = EARTH
REF_FRAME      = TEME
TIME_SYSTEM    = UTC
MEAN_ELEMENT_THEORY = SGP/SGP4

EPOCH          = 2025-12-13T14:00:03.000384
MEAN_MOTION    = 15.49260498
ECCENTRICITY   = .000061
INCLINATION    = 53.1602
RA_OF_ASC_NODE = 183.1747
ARG_OF_PERICENTER = 103.4943
MEAN_ANOMALY   = 24.5029

EPHEMERIS_TYPE = 0
CLASSIFICATION_TYPE = U
NORAD_CAT_ID   = 66624
ELEMENT_SET_NO = 999
REV_AT_EPOCH   = 437
BSTAR          = .13066125E-2
MEAN_MOTION_DOT = .72775E-3
MEAN_MOTION_DDOT = 0

CCSDS_OMM_VERS = 2.0
CREATION_DATE  = 
ORIGINATOR     = 

OBJECT_NAME    = STARLINK-35929
OBJECT_ID      = 2025-271J
CENTER_NAME    = EARTH
REF_FRAME      = TEME
TIME_SYSTEM    = UTC
MEAN_ELEMENT_THEORY = SGP/SGP4

EPOCH          = 2025-12-13T14:00:03.000384
MEAN_MOTION    = 15.49267954
ECCENTRICITY   = .00012556
INCLINATION    = 53.1602
RA_OF_ASC_NODE = 183.1654
ARG_OF_PERICENTER = 99.9875
MEAN_ANOMALY   = 31.8319

EPHEMERIS_TYPE = 0
CLASSIFICATION_TYPE = U
NORAD_CAT_ID   = 66625
ELEMENT_SET_NO = 999
REV_AT_EPOCH   = 437
BSTAR          = .11971932E-2
MEAN_MOTION_DOT = .66608E-3
MEAN_MOTION_DDOT = 0

